OBJECT_NAME,OBJECT_ID,EPOCH,MEAN_MOTION,ECCENTRICITY,INCLINATION,RA_OF_ASC_NODE,ARG_OF_PERICENTER,MEAN_ANOMALY,EPHEMERIS_TYPE,CLASSIFICATION_TYPE,NORAD_CAT_ID,ELEMENT_SET_NO,REV_AT_EPOCH,BSTAR,MEAN_MOTION_DOT,MEAN_MOTION_DDOT
STARLINK-38086,2026-159Z,2026-07-22T20:00:01.999872,15.80812028,.00015333,97.2854,42.9855,104.3461,210.7462,0,U,69998,999,308,.53950031E-4,.10202E-3,0
SARAMAGO,2026-067CY,2026-07-22T20:52:00.333984,15.20561216,.00059339,97.4593,161.9777,233.0546,127.0146,0,U,100000,999,1712,.42930491E-3,.9338E-4,0
STARLINK-38128,2026-160A,2026-07-22T19:42:25.285536,15.78606623,.00037456,70.0026,4.0417,272.6491,87.4280,0,U,100001,999,259,.12629994E-2,.226351E-2,0
STARLINK-37711,2026-160B,2026-07-22T19:41:21.013440,15.78463814,.00035429,69.9989,4.0323,288.4464,71.6351,0,U,100002,999,259,.26585615E-2,.488433E-2,0
STARLINK-38123,2026-160C,2026-07-22T21:11:30.977952,15.78521314,.00033677,70.0025,3.8558,298.7286,61.3575,0,U,100003,999,260,.19548439E-2,.354379E-2,0
STARLINK-38107,2026-160D,2026-07-22T21:10:25.860000,15.78676729,.00044689,70.0016,3.8519,289.3509,70.7207,0,U,100004,999,260,.22659397E-2,.416767E-2,0
STARLINK-38122,2026-160E,2026-07-22T18:05:44.556288,15.79771806,.0008163,70.0029,4.2075,279.0944,80.9333,0,U,100005,999,258,-.2467503E-2,-.434025E-2,0
STARLINK-38117,2026-160F,2026-07-22T21:08:15.739008,15.78579689,.00032799,70.0002,3.8455,275.7022,84.3804,0,U,100006,999,260,.11531648E-2,.20589E-2,0
STARLINK-38054,2026-160G,2026-07-22T21:07:10.529472,15.78588826,.00040605,70.0005,3.8428,274.5141,85.5595,0,U,100007,999,260,.96275494E-3,.171257E-2,0
STARLINK-38124,2026-160H,2026-07-22T19:34:50.766240,15.78665880,.00039058,70.0030,4.0223,295.2817,64.7979,0,U,100008,999,259,.12806659E-2,.230241E-2,0
STARLINK-38119,2026-160J,2026-07-22T21:05:00.966624,15.78592685,.00035351,70.0009,3.8367,285.5018,74.5792,0,U,100009,999,260,.63378255E-3,.111889E-2,0
STARLINK-38045,2026-160K,2026-07-22T21:03:55.731168,15.78606213,.00035492,70.0010,3.8338,279.7639,80.3160,0,U,100010,999,260,-.40367163E-3,-.70222E-3,0
STARLINK-38051,2026-160L,2026-07-22T21:02:52.062144,15.78777737,.00035076,70.0026,3.8316,316.5183,43.5740,0,U,100011,999,260,.14660352E-2,.266016E-2,0
STARLINK-38092,2026-160M,2026-07-22T21:01:45.426144,15.78712453,.00044232,70.0019,3.8294,297.1575,62.9174,0,U,100012,999,260,-.19859611E-2,-.335947E-2,0
STARLINK-37719,2026-160N,2026-07-22T17:57:06.708384,15.80965697,.00099346,70.0030,4.1844,286.0722,73.9385,0,U,100013,999,258,-.63303559E-2,-.1093193E-1,0
STARLINK-38106,2026-160P,2026-07-22T17:57:07.295040,15.80506211,.00094693,70.0067,4.1839,277.8329,82.1797,0,U,100014,999,258,.16749696E-2,.331866E-2,0
STARLINK-37299,2026-160Q,2026-07-22T16:24:48.700800,15.79657345,.00051213,69.9998,4.3614,248.1873,111.8784,0,U,100015,999,257,-.41492635E-2,-.702821E-2,0
STARLINK-38052,2026-160R,2026-07-22T01:12:48.677760,15.84093947,.00126587,70.0056,6.1668,311.2209,48.7902,0,U,100016,999,247,.14591661E-2,.342721E-2,0
STARLINK-38114,2026-160S,2026-07-22T20:54:28.970496,15.83702974,.00107134,70.0012,3.8081,242.6107,117.4006,0,U,100017,999,260,.16829252E-2,.389529E-2,0
STARLINK-37239,2026-160T,2026-07-22T11:48:22.229280,15.81483806,.00050793,70.0008,4.8956,287.6122,72.4525,0,U,100018,999,254,-.45601297E-2,-.828282E-2,0
STARLINK-37580,2026-160U,2026-07-22T20:54:19.634112,15.80407273,.0005752,69.9996,3.8107,328.7086,31.3772,0,U,100019,999,260,.74005293E-3,.142463E-2,0
STARLINK-38032,2026-160V,2026-07-22T11:46:27.994656,15.82222711,.0006436,70.0014,4.8892,249.0512,111.0002,0,U,100020,999,254,-.1175732E-2,-.236554E-2,0
STARLINK-38110,2026-160W,2026-07-22T11:45:28.259424,15.82515639,.00067006,70.0020,4.8872,244.1080,115.9432,0,U,100021,999,254,.44952761E-3,.94798E-3,0
STARLINK-38103,2026-160X,2026-07-22T11:44:31.933536,15.82573965,.0006342,70.0015,4.8840,251.6169,108.4343,0,U,100022,999,254,-.11365481E-2,-.232551E-2,0
STARLINK-38102,2026-160Y,2026-07-22T19:19:04.258560,15.81406023,.00063543,70.0029,3.9797,285.0400,75.0098,0,U,100023,999,259,-.10141736E-2,-.197349E-2,0
STARLINK-38108,2026-160Z,2026-07-22T11:42:38.434176,15.83059650,.00068721,70.0014,4.8789,216.7234,143.3499,0,U,100024,999,254,.12653308E-2,.280019E-2,0
STARLINK-38109,2026-160AA,2026-07-22T11:41:41.644320,15.83271119,.00063591,70.0007,4.8791,238.0822,121.9763,0,U,100025,999,254,.44541031E-3,.97326E-3,0
STARLINK-38034,2026-160AB,2026-07-22T11:40:37.576128,15.82793634,.00056607,70.0012,4.8744,282.5381,77.5187,0,U,100026,999,254,-.44993165E-2,-.865654E-2,0
STARLINK-38094,2026-160AC,2026-07-22T11:39:40.789728,15.82970260,.00053361,70.0027,4.8718,279.9546,80.1054,0,U,100027,999,254,-.43305915E-2,-.842219E-2,0
STARLINK-37844,2026-161A,2026-07-22T14:49:37.335072,15.88052447,.000059,53.1608,284.3863,127.0209,233.0871,0,U,100028,999,245,-.3543414E-2,-.893275E-2,0
STARLINK-37610,2026-161B,2026-07-22T14:48:38.392128,15.88123798,.00003349,53.1609,284.3808,321.8909,38.2094,0,U,100029,999,132,-.29214883E-2,-.751194E-2,0
STARLINK-37845,2026-161C,2026-07-22T11:46:37.768224,15.88264865,.00013465,53.1609,285.0135,46.3116,313.8021,0,U,100030,999,130,-.38835468E-2,-.97997E-2,0
STARLINK-37336,2026-161D,2026-07-22T14:46:48.452448,15.88377110,.00002425,53.1607,284.3720,6.5865,353.5164,0,U,100031,999,132,-.29154102E-2,-.758571E-2,0
STARLINK-37481,2026-161E,2026-07-22T14:45:02.952864,15.88636050,.00014894,53.1608,284.3642,40.4531,319.6606,0,U,100032,999,132,-.28300177E-2,-.74733E-2,0
STARLINK-37458,2026-161F,2026-07-22T14:44:05.584992,15.88728004,.00014439,53.1605,284.3602,37.7295,322.3832,0,U,100033,999,132,-.28960231E-2,-.766628E-2,0
STARLINK-37917,2026-161G,2026-07-22T14:43:17.089536,15.88896553,.00014379,53.1605,284.3556,38.4511,321.6618,0,U,100034,999,132,-.28270637E-2,-.755709E-2,0
STARLINK-37415,2026-161H,2026-07-22T14:42:25.624512,15.89029060,.00013595,53.1609,284.3509,40.5441,319.5686,0,U,100035,999,132,-.24130848E-2,-.656661E-2,0
STARLINK-37560,2026-161J,2026-07-22T14:41:33.736992,15.89172166,.00007542,53.1606,284.3470,38.9456,321.1624,0,U,100036,999,132,-.28345538E-2,-.767159E-2,0
STARLINK-37847,2026-161K,2026-07-22T14:40:33.923136,15.89265176,.00013217,53.1604,284.3421,43.8615,316.2516,0,U,100037,999,132,-.2802717E-2,-.762696E-2,0
STARLINK-37672,2026-161L,2026-07-22T14:39:42.471072,15.89401963,.00014399,53.1601,284.3392,32.5350,327.5765,0,U,100038,999,132,-.27759034E-2,-.760869E-2,0
STARLINK-37693,2026-161M,2026-07-22T14:38:56.255712,15.89567513,.00018929,53.1604,284.3341,31.6572,328.4569,0,U,100039,999,132,-.26500926E-2,-.734837E-2,0
STARLINK-37714,2026-161N,2026-07-22T14:38:06.528192,15.89718496,.00016019,53.1602,284.3299,33.0483,327.0644,0,U,100040,999,132,-.26654539E-2,-.74395E-2,0
STARLINK-37448,2026-161P,2026-07-22T14:37:20.807040,15.89903591,.0000993,53.1600,284.3284,4.1955,355.9079,0,U,100041,999,132,-.24863759E-2,-.703573E-2,0
STARLINK-38002,2026-161Q,2026-07-22T14:36:25.888608,15.89985397,.00004758,53.1611,284.3242,39.4752,320.6309,0,U,100042,999,132,-.27345885E-2,-.771023E-2,0
STARLINK-38023,2026-161R,2026-07-22T14:45:56.028384,15.88502919,.00009974,53.1611,284.3685,49.3489,310.7623,0,U,100043,999,132,-.28782152E-2,-.754229E-2,0
STARLINK-37984,2026-161S,2026-07-22T14:35:25.299744,15.90058298,.00006641,53.1606,284.3188,21.6624,338.4431,0,U,100044,999,132,-.2725631E-2,-.771396E-2,0
STARLINK-37808,2026-161T,2026-07-22T14:34:36.022368,15.90206687,.00006584,53.1606,284.3154,26.3159,333.7901,0,U,100045,999,132,-.27072214E-2,-.771989E-2,0
STARLINK-37807,2026-161U,2026-07-22T14:33:48.936960,15.90357709,.00007312,53.1607,284.3110,32.8702,327.2370,0,U,100046,999,132,-.26917953E-2,-.773465E-2,0
STARLINK-37756,2026-161V,2026-07-22T14:32:54.311424,15.90470185,.00009668,53.1604,284.3064,26.5732,333.5344,0,U,100047,999,132,-.26204723E-2,-.758676E-2,0
STARLINK-37752,2026-161W,2026-07-22T14:32:05.655264,15.90593215,.00007286,53.1606,284.3022,26.9109,333.1956,0,U,100048,999,132,-.26750273E-2,-.77766E-2,0
STARLINK-37848,2026-161X,2026-07-22T14:31:16.615488,15.90728298,.00006668,53.1606,284.2985,37.4965,322.6109,0,U,100049,999,132,-.26176853E-2,-.7672E-2,0
STARLINK-37826,2026-161Y,2026-07-22T14:30:27.571392,15.90859598,.00011446,53.1604,284.2943,44.9481,315.1638,0,U,100050,999,132,-.2580309E-2,-.828867E-2,.21571582E-3
STARLINK-37677,2026-161Z,2026-07-22T14:29:39.336864,15.91008358,.00012367,53.1604,284.2907,36.1644,323.9466,0,U,100051,999,132,-.25254244E-2,-.817561E-2,.2107606E-3
STARLINK-37797,2026-161AA,2026-07-22T14:28:55.669440,15.91158323,.00015839,53.1602,284.2869,38.8118,321.3023,0,U,100052,999,132,-.2420023E-2,-.789779E-2,.19837331E-3
STARLINK-37796,2026-161AB,2026-07-22T14:28:10.972992,15.91396357,.00025457,53.1604,284.2817,22.9753,337.1388,0,U,100053,999,132,-.15270761E-2,-.506546E-2,.91230804E-4
STARLINK-37505,2026-161AC,2026-07-22T15:56:33.275328,15.92932709,.0001696,53.1594,283.9535,339.6383,20.4577,0,U,100054,999,133,-.48990128E-2,-.1738031E-1,.84632215E-3
STARLINK-37605,2026-161AD,2026-07-22T14:26:41.747712,15.91599883,.00043661,53.1602,284.2748,22.6345,337.4874,0,U,100055,999,132,.99814597E-3,.329147E-2,.51861971E-4
STARLINK-37650,2026-161AE,2026-07-22T14:25:43.844160,15.91688489,.00018444,53.1595,284.2717,36.8212,323.2942,0,U,100056,999,132,-.24570055E-2,-.82382E-2,.21507975E-3
SOYUZ-MS 29,2026-162A,2026-07-22T19:09:35.205696,15.49102905,.00068971,51.6313,123.8641,326.7338,33.3216,0,U,100057,999,57691,.18351277E-3,.9714E-4,0
AAGAMAN OBJECT A,2026-164A,2026-07-22T22:09:53.678016,15.39684581,.00109611,59.9282,287.0920,297.0079,62.9888,0,U,100080,999,72,.208008E-3,.7977E-4,0
AAGAMAN OBJECT B,2026-164B,2026-07-22T15:55:12.541440,15.39941870,.00066145,59.9252,288.1097,301.7643,58.2799,0,U,100081,999,67,.84779463E-3,.33929E-3,0
AAGAMAN OBJECT C,2026-164C,2026-07-22T19:01:34.693824,15.40057839,.00076995,59.9332,287.6051,308.0695,51.9697,0,U,100082,999,68,.62206826E-3,.24877E-3,0
